CCSDS_OEM_VERS = 2.0
CREATION_DATE = 2024-09-28T03:00:55.543000000
ORIGINATOR = NONE

META_START
OBJECT_NAME = _SCPACE_OEM
OBJECT_ID = 1
CENTER_NAME = EARTH
REF_FRAME = EME2000
TIME_SYSTEM = UTC
START_TIME = 2024-09-26T16:00:00.000000000
STOP_TIME = 2024-09-28T00:00:00.000000000
INTERPOLATION = LAGRANGE
INTERPOLATION_DEGREE = 8
META_STOP

2024-09-27T07:12:00.000000000  4.540142113419455e+03  9.446036818146580e+02 -5.323738055941985e+03 -5.087440231123147e+00 -2.692634242286409e+00 -4.819351686480257e+00
2024-09-27T07:13:00.000000000  4.225873566503444e+03  7.812349373646342e+02 -5.601852598350929e+03 -5.384596936691088e+00 -2.751136666657578e+00 -4.448003770591235e+00
2024-09-27T07:14:00.000000000  3.894430331825502e+03  6.146911989619350e+02 -5.857139725236304e+03 -5.659741348439913e+00 -2.798434071631331e+00 -4.058699139248230e+00
2024-09-27T07:15:00.000000000  3.547166249066799e+03  4.456503825558847e+02 -6.088569491335144e+03 -5.911782129444349e+00 -2.834345046078403e+00 -3.653028674335381e+00
2024-09-27T07:16:00.000000000  3.185497973006279e+03  2.747999989132060e+02 -6.295209202659290e+03 -6.139722720073769e+00 -2.858734009707075e+00 -3.232644570008829e+00
2024-09-27T07:17:00.000000000  2.810899042980299e+03  1.028343239150663e+02 -6.476226928431265e+03 -6.342664624481574e+00 -2.871511337719107e+00 -2.799253149335543e+00
2024-09-27T07:18:00.000000000  2.424893741111891e+03 -6.954844447131333e+01 -6.630894636165931e+03 -6.519809807498419e+00 -2.872633285295332e+00 -2.354607818203767e+00
2024-09-27T07:19:00.000000000  2.029051269176678e+03 -2.416488083413309e+02 -6.758590760615433e+03 -6.670462543076536e+00 -2.862101909924216e+00 -1.900502950519627e+00
2024-09-27T07:20:00.000000000  1.624979416299508e+03 -4.127687831377168e+02 -6.858802445074527e+03 -6.794031863129611e+00 -2.839965072638787e+00 -1.438767425559358e+00
2024-09-27T07:21:00.000000000  1.214318256825889e+03 -5.822146095584316e+02 -6.931127406201726e+03 -6.890033756031197e+00 -2.806316165681713e+00 -9.712575130846659e-01
2024-09-27T07:22:00.000000000  7.987336984107637e+02 -7.492994720292523e+02 -6.975275397225366e+03 -6.958092187880652e+00 -2.761293321657554e+00 -4.998494283357176e-01
2024-09-27T07:23:00.000000000  3.799109029072313e+02 -9.133461792644612e+02 -6.991069168881198e+03 -6.997939518906246e+00 -2.705078346169493e+00 -2.643287622880878e-02
2024-09-27T07:24:00.000000000 -4.045217756235100e+01 -1.073689735600575e+03 -6.978445115546370e+03 -7.009417505587855e+00 -2.637896116481916e+00  4.470947799561918e-01
2024-09-27T07:25:00.000000000 -4.606513904456896e+02 -1.229679924907309e+03 -6.937453501789618e+03 -6.992478377151627e+00 -2.560014232220892e+00  9.188356517375529e-01
2024-09-27T07:26:00.000000000 -8.789828591902511e+02 -1.380683789572723e+03 -6.868258398089624e+03 -6.947184484283539e+00 -2.471742151362409e+00  1.386898521332963e+00
2024-09-27T07:27:00.000000000 -1.293749991150282e+03 -1.526088243029239e+03 -6.771136850534521e+03 -6.873707776455923e+00 -2.373429874926999e+00  1.849405363424519e+00
2024-09-27T07:28:00.000000000 -1.703269870584695e+03 -1.665302414023809e+03 -6.646478074289126e+03 -6.772329967214900e+00 -2.265466808552473e+00  2.304496886477020e+00
2024-09-27T07:29:00.000000000 -2.105879575960416e+03 -1.797759881290502e+03 -6.494782169787230e+03 -6.643442869539115e+00 -2.148280884273367e+00  2.750339341601490e+00
2024-09-27T07:30:00.000000000 -2.499943026974988e+03 -1.922921041651550e+03 -6.316658294171149e+03 -6.487547380772285e+00 -2.022337197130288e+00  3.185132392987642e+00
2024-09-27T07:31:00.000000000 -2.883857411961191e+03 -2.040275265696741e+03 -6.112822407985314e+03 -6.305251783191667e+00 -1.888136148735111e+00  3.607116238574920e+00
2024-09-27T07:32:00.000000000 -3.256059438399712e+03 -2.149342930760326e+03 -5.884094949588088e+03 -6.097269729396444e+00 -1.746211514816528e+00  4.014577816783740e+00
2024-09-27T07:33:00.000000000 -3.615032128748781e+03 -2.249677468880878e+03 -5.631397081404850e+03 -5.864418060840196e+00 -1.597128622578605e+00  4.405857951641822e+00
2024-09-27T07:34:00.000000000 -3.959310475047153e+03 -2.340867129237634e+03 -5.355747834215055e+03 -5.607614854276554e+00 -1.441483063451065e+00  4.779357104706966e+00
2024-09-27T07:35:00.000000000 -4.287487357289277e+03 -2.422536715896021e+03 -5.058260425614752e+03 -5.327877091494885e+00 -1.279898776259907e+00  5.133542345037536e+00
2024-09-27T07:36:00.000000000 -4.598219585226742e+03 -2.494349278574808e+03 -4.740137881219637e+03 -5.026317163587024e+00 -1.113025483329143e+00  5.466954462886296e+00
2024-09-27T07:37:00.000000000 -4.890233521308023e+03 -2.556007567199676e+03 -4.402668352002655e+03 -4.704138929821682e+00 -9.415361849447510e-01  5.778214422343459e+00
2024-09-27T07:38:00.000000000 -5.162330074950141e+03 -2.607255266471169e+03 -4.047220604123988e+03 -4.362633818322550e+00 -7.661248036189784e-01  6.066029234966567e+00
2024-09-27T07:39:00.000000000 -5.413390616327637e+03 -2.647878351820342e+03 -3.675237657472704e+03 -4.003175248587310e+00 -5.875029632119411e-01  6.329198436885886e+00
2024-09-27T07:40:00.000000000 -5.642381077558286e+03 -2.677705952155585e+03 -3.288231942841077e+03 -3.627214451756262e+00 -4.063976423978419e-01  6.566618868133618e+00
2024-09-27T07:41:00.000000000 -5.848356747908096e+03 -2.696611181419516e+03 -2.887778588184623e+03 -3.236274739466900e+00 -2.235481143176998e-01  6.777290817408162e+00
2024-09-27T07:42:00.000000000 -6.030466263012659e+03 -2.704511809660030e+03 -2.475509911653498e+03 -2.831945901768172e+00 -3.970304165114710e-02  6.960322682970385e+00
2024-09-27T07:43:00.000000000 -6.187955476959860e+03 -2.701370721761415e+03 -2.053108271544193e+03 -2.415877380136908e+00  1.443829411680382e-01  7.114935804405865e+00
2024-09-27T07:44:00.000000000 -6.320170842014805e+03 -2.687196182776716e+03 -1.622299240155165e+03 -1.989771660472340e+00  3.279523375730380e-01  7.240468571089457e+00
2024-09-27T07:45:00.000000000 -6.426562333921537e+03 -2.662041925938383e+03 -1.184844609557011e+03 -1.555377088054177e+00  5.102482223553528e-01  7.336380228196345e+00
2024-09-27T07:46:00.000000000 -6.506686047632486e+03 -2.626006937578883e+03 -7.425345530691824e+02 -1.114479719345196e+00  6.905180750375637e-01  7.402253848709855e+00
2024-09-27T07:47:00.000000000 -6.560206199456478e+03 -2.579235182556932e+03 -2.971807456027962e+02 -6.688959384584452e-01  8.680168806863857e-01  7.437798502308591e+00
2024-09-27T07:48:00.000000000 -6.586896608058237e+03 -2.521914989890347e+03  1.493916196410490e+02 -2.204635676388503e-01  1.042010489290316e+00  7.442851239395291e+00
2024-09-27T07:49:00.000000000 -6.586641818673636e+03 -2.454278355948176e+03  5.953513096490411e+02  2.289662570877714e-01  1.211778718746279e+00  7.417377241128343e+00
2024-09-27T07:50:00.000000000 -6.559437754845062e+03 -2.376600037096446e+03  1.038868662727875e+03  6.775362481835187e-01  1.376618332920260e+00  7.361469941986505e+00
2024-09-27T07:51:00.000000000 -6.505391742884271e+03 -2.289196364043119e+03  1.478123670752419e+03  1.123391450291487e+00  1.535846361289221e+00  7.275351744284127e+00
2024-09-27T07:52:00.000000000 -6.424722039207446e+03 -2.192423931197241e+03  1.911313604211652e+03  1.564688426621733e+00  1.688803399906431e+00  7.159372897784148e+00
2024-09-27T07:53:00.000000000 -6.317756785483322e+03 -2.086678020558740e+03  2.336660794953582e+03  1.999603093277894e+00  1.834856509814644e+00  7.014008807550899e+00
2024-09-27T07:54:00.000000000 -6.184933164867752e+03 -1.972391232475730e+03  2.752419257531305e+03  2.426336695599733e+00  1.973401412861969e+00  6.839858823467008e+00
2024-09-27T07:55:00.000000000 -6.026795274777875e+03 -1.850031452860491e+03  3.156882729719304e+03  2.843125648068153e+00  2.103865630440486e+00  6.637644707589899e+00
2024-09-27T07:56:00.000000000 -5.843991366461903e+03 -1.720099700608736e+03  3.548392322101461e+03  3.248250963858565e+00  2.225711241172890e+00  6.408205735302860e+00
2024-09-27T07:57:00.000000000 -5.637271944374586e+03 -1.583128547198925e+03  3.925341997686902e+03  3.640042876587992e+00  2.338436529949283e+00  6.152494561991661e+00
2024-09-27T07:58:00.000000000 -5.407485388083172e+03 -1.439679118317735e+03  4.286187191278023e+03  4.016889465788451e+00  2.441579028494630e+00  5.871573483413093e+00
2024-09-27T07:59:00.000000000 -5.155575435029956e+03 -1.290339332044063e+03  4.629449697355977e+03  4.377243835308103e+00  2.534717335930977e+00  5.566610433263203e+00
2024-09-27T08:00:00.000000000 -4.882575615286567e+03 -1.135720762486382e+03  4.953724818299572e+03  4.719632938349936e+00  2.617472948251798e+00  5.238870353868292e+00
2024-09-27T08:01:00.000000000 -4.589606575764707e+03 -9.764568574493072e+02  5.257685858635406e+03  5.042659662513481e+00  2.689510298936358e+00  4.889709094285987e+00
2024-09-27T08:02:00.000000000 -4.277869949005376e+03 -8.131996751686513e+02  5.540090365438461e+03  5.345008453604160e+00  2.750538218710215e+00  4.520567496730777e+00
2024-09-27T08:03:00.000000000 -3.948643649771259e+03 -6.466173400712773e+02  5.799784815969982e+03  5.625449935648986e+00  2.800310909355486e+00  4.132966305191469e+00
2024-09-27T08:04:00.000000000 -3.603276755245295e+03 -4.773913998277715e+02  6.035709094563767e+03  5.882845886435366e+00  2.838628877320561e+00  3.728500179646529e+00
2024-09-27T08:05:00.000000000 -3.243183771098802e+03 -3.062139525753825e+02  6.246900832387109e+03  6.116154077911722e+00  2.865339705508573e+00  3.308830553267963e+00
2024-09-27T08:06:00.000000000 -2.869838741162776e+03 -1.337848122104920e+02  6.432499165008718e+03  6.324432067254738e+00  2.880338450050784e+00  2.875678220780217e+00
2024-09-27T08:07:00.000000000 -2.484769136205817e+03  3.919136501823274e+01  6.591748098870978e+03  6.506840347209900e+00  2.883567939324446e+00  2.430816197071643e+00
2024-09-27T08:08:00.000000000 -2.089549728123076e+03  2.120078875091142e+02  6.723999370334367e+03  6.662645440455518e+00  2.875018972708949e+00  1.976062285011861e+00
